[{"OBJECT_NAME":"STARLINK-3866","OBJECT_ID":"2022-049BB","EPOCH":"2026-03-09T07:47:25.703520","MEAN_MOTION":15.08842237,"ECCENTRICITY":0.00014538,"INCLINATION":53.218,"RA_OF_ASC_NODE":40.7568,"ARG_OF_PERICENTER":88.7553,"MEAN_ANOMALY":271.3605,"EPHEMERIS_TYPE":0,"CLASSIFICATION_TYPE":"U","NORAD_CAT_ID":52500,"ELEMENT_SET_NO":999,"REV_AT_EPOCH":21247,"BSTAR":5.9018623e-5,"MEAN_MOTION_DOT":6.52e-6,"MEAN_MOTION_DDOT":0},{"OBJECT_NAME":"DELTA 1 DEB","OBJECT_ID":"1975-004G","EPOCH":"2026-03-09T15:36:08.786016","MEAN_MOTION":14.94952077,"ECCENTRICITY":0.0108933,"INCLINATION":98.7496,"RA_OF_ASC_NODE":312.2418,"ARG_OF_PERICENTER":37.6041,"MEAN_ANOMALY":323.2729,"EPHEMERIS_TYPE":0,"CLASSIFICATION_TYPE":"U","NORAD_CAT_ID":8679,"ELEMENT_SET_NO":999,"REV_AT_EPOCH":62753,"BSTAR":0.0013803,"MEAN_MOTION_DOT":0.00016927,"MEAN_MOTION_DDOT":0}]
